{"type": "FeatureCollection", "features": [{"type": "Feature", "properties": {"norad_id": 24946, "name": "IRIDIUM 33", "group": "iridium-33-debris", "lat": -82.73519529164263, "lon": -80.75693973551276, "alt_km": 779.451194379214, "timestamp": "2025-12-09T14:52:26.547221+00:00", "meta": {"OBJECT_NAME": "IRIDIUM 33", "OBJECT_ID": "1997-051C", "EPOCH": "2025-12-09T06:57:17.894016", "MEAN_MOTION": 14.35033739, "ECCENTRICITY": 0.00066482, "INCLINATION": 86.387, "RA_OF_ASC_NODE": 69.6697, "ARG_OF_PERICENTER": 213.1217, "MEAN_ANOMALY": 146.9564, "EPHEMERIS_TYPE": 0, "CLASSIFICATION_TYPE": "U", "NORAD_CAT_ID": 24946, "ELEMENT_SET_NO": 999, "REV_AT_EPOCH": 47785, "BSTAR": 0.00021762224, "MEAN_MOTION_DOT": 6.39e-06, "MEAN_MOTION_DDOT": 0}, "tle": {"line1": "1 24946U 97051C   25343.28979044  .00000639  00000+0  21762-3 0  9995", "line2": "2 24946  86.3870  69.6697 0006648 213.1217 146.9564 14.35033739477857"}}, "geometry": {"type": "Point", "coordinates": [-80.75693973551276, -82.73519529164263]}}, {"type": "Feature", "properties": {"norad_id": 33773, "name": "IRIDIUM 33 DEB", "group": "iridium-33-debris", "lat": 51.38634623623433, "lon": -122.60751309700915, "alt_km": 735.4197686800071, "timestamp": "2025-12-09T14:52:26.547252+00:00", "meta": {"OBJECT_NAME": "IRIDIUM 33 DEB", "OBJECT_ID": "1997-051L", "EPOCH": "2025-12-09T05:57:40.209984", "MEAN_MOTION": 14.43245897, "ECCENTRICITY": 0.00121418, "INCLINATION": 86.4015, "RA_OF_ASC_NODE": 62.0689, "ARG_OF_PERICENTER": 156.7488, "MEAN_ANOMALY": 203.4265, "EPHEMERIS_TYPE": 0, "CLASSIFICATION_TYPE": "U", "NORAD_CAT_ID": 33773, "ELEMENT_SET_NO": 999, "REV_AT_EPOCH": 88297, "BSTAR": 0.00056003571, "MEAN_MOTION_DOT": 1.905e-05, "MEAN_MOTION_DDOT": 0}, "tle": {"line1": "1 33773U 97051L   25343.24838206  .00001905  00000+0  56004-3 0  9997", "line2": "2 33773  86.4015  62.0689 0012141 156.7488 203.4265 14.43245897882971"}}, "geometry": {"type": "Point", "coordinates": [-122.60751309700915, 51.38634623623433]}}, {"type": "Feature", "properties": {"norad_id": 33775, "name": "IRIDIUM 33 DEB", "group": "iridium-33-debris", "lat": -52.10454524520195, "lon": -124.42849631956891, "alt_km": 756.9972152936871, "timestamp": "2025-12-09T14:52:26.547283+00:00", "meta": {"OBJECT_NAME": "IRIDIUM 33 DEB", "OBJECT_ID": "1997-051N", "EPOCH": "2025-12-09T05:44:15.430272", "MEAN_MOTION": 14.41457602, "ECCENTRICITY": 0.00138861, "INCLINATION": 86.364, "RA_OF_ASC_NODE": 51.048, "ARG_OF_PERICENTER": 165.4879, "MEAN_ANOMALY": 252.3295, "EPHEMERIS_TYPE": 0, "CLASSIFICATION_TYPE": "U", "NORAD_CAT_ID": 33775, "ELEMENT_SET_NO": 999, "REV_AT_EPOCH": 88090, "BSTAR": 0.00059297093, "MEAN_MOTION_DOT": 1.944e-05, "MEAN_MOTION_DDOT": 0}, "tle": {"line1": "1 33775U 97051N   25343.23906748  .00001944  00000+0  59297-3 0  9995", "line2": "2 33775  86.3640  51.0480 0013886 165.4879 252.3295 14.41457602880905"}}, "geometry": {"type": "Point", "coordinates": [-124.42849631956891, -52.10454524520195]}}, {"type": "Feature", "properties": {"norad_id": 33776, "name": "IRIDIUM 33 DEB", "group": "iridium-33-debris", "lat": 41.97824904336307, "lon": -101.15766834229902, "alt_km": 756.5180313546844, "timestamp": "2025-12-09T14:52:26.547297+00:00", "meta": {"OBJECT_NAME": "IRIDIUM 33 DEB", "OBJECT_ID": "1997-051P", "EPOCH": "2025-12-09T07:49:29.994240", "MEAN_MOTION": 14.38226618, "ECCENTRICITY": 0.00139362, "INCLINATION": 86.4038, "RA_OF_ASC_NODE": 82.2093, "ARG_OF_PERICENTER": 201.8823, "MEAN_ANOMALY": 216.3432, "EPHEMERIS_TYPE": 0, "CLASSIFICATION_TYPE": "U", "NORAD_CAT_ID": 33776, "ELEMENT_SET_NO": 999, "REV_AT_EPOCH": 88033, "BSTAR": 0.00060506512, "MEAN_MOTION_DOT": 1.859e-05, "MEAN_MOTION_DDOT": 0}, "tle": {"line1": "1 33776U 97051P   25343.32604160  .00001859  00000+0  60507-3 0  9990", "line2": "2 33776  86.4038  82.2093 0013936 201.8823 216.3432 14.38226618880331"}}, "geometry": {"type": "Point", "coordinates": [-101.15766834229902, 41.97824904336307]}}, {"type": "Feature", "properties": {"norad_id": 33777, "name": "IRIDIUM 33 DEB", "group": "iridium-33-debris", "lat": 86.26475452787388, "lon": 140.59317451782158, "alt_km": 703.5955943614908, "timestamp": "2025-12-09T14:52:26.547310+00:00", "meta": {"OBJECT_NAME": "IRIDIUM 33 DEB", "OBJECT_ID": "1997-051Q", "EPOCH": "2025-12-09T04:33:29.869056", "MEAN_MOTION": 14.55571675, "ECCENTRICITY": 0.00050771, "INCLINATION": 86.3783, "RA_OF_ASC_NODE": 36.7474, "ARG_OF_PERICENTER": 265.7419, "MEAN_ANOMALY": 94.3208, "EPHEMERIS_TYPE": 0, "CLASSIFICATION_TYPE": "U", "NORAD_CAT_ID": 33777, "ELEMENT_SET_NO": 999, "REV_AT_EPOCH": 88482, "BSTAR": 0.0010985936, "MEAN_MOTION_DOT": 4.809e-05, "MEAN_MOTION_DDOT": 0}, "tle": {"line1": "1 33777U 97051Q   25343.18992904  .00004809  00000+0  10986-2 0  9994", "line2": "2 33777  86.3783  36.7474 0005077 265.7419  94.3208 14.55571675884820"}}, "geometry": {"type": "Point", "coordinates": [140.59317451782158, 86.26475452787388]}}, {"type": "Feature", "properties": {"norad_id": 33850, "name": "IRIDIUM 33 DEB", "group": "iridium-33-debris", "lat": -25.454389042552855, "lon": -146.73364733395968, "alt_km": 750.2214212373474, "timestamp": "2025-12-09T14:52:26.547322+00:00", "meta": {"OBJECT_NAME": "IRIDIUM 33 DEB", "OBJECT_ID": "1997-051T", "EPOCH": "2025-12-09T04:12:04.722624", "MEAN_MOTION": 14.42134483, "ECCENTRICITY": 0.00118428, "INCLINATION": 86.342, "RA_OF_ASC_NODE": 31.7125, "ARG_OF_PERICENTER": 172.0555, "MEAN_ANOMALY": 246.0053, "EPHEMERIS_TYPE": 0, "CLASSIFICATION_TYPE": "U", "NORAD_CAT_ID": 33850, "ELEMENT_SET_NO": 999, "REV_AT_EPOCH": 88101, "BSTAR": 0.00048335793, "MEAN_MOTION_DOT": 1.61e-05, "MEAN_MOTION_DDOT": 0}, "tle": {"line1": "1 33850U 97051T   25343.17505466  .00001610  00000+0  48336-3 0  9996", "line2": "2 33850  86.3420  31.7125 0011842 172.0555 246.0053 14.42134483881016"}}, "geometry": {"type": "Point", "coordinates": [-146.73364733395968, -25.454389042552855]}}, {"type": "Feature", "properties": {"norad_id": 33853, "name": "IRIDIUM 33 DEB", "group": "iridium-33-debris", "lat": -6.168798665440488, "lon": -9.253892697787856, "alt_km": 945.7275904332118, "timestamp": "2025-12-09T14:52:26.547335+00:00", "meta": {"OBJECT_NAME": "IRIDIUM 33 DEB", "OBJECT_ID": "1997-051W", "EPOCH": "2025-12-09T01:26:49.533792", "MEAN_MOTION": 13.990264, "ECCENTRICITY": 0.02069593, "INCLINATION": 85.9998, "RA_OF_ASC_NODE": 351.4246, "ARG_OF_PERICENTER": 247.2093, "MEAN_ANOMALY": 168.4772, "EPHEMERIS_TYPE": 0, "CLASSIFICATION_TYPE": "U", "NORAD_CAT_ID": 33853, "ELEMENT_SET_NO": 999, "REV_AT_EPOCH": 85294, "BSTAR": 0.0024496433, "MEAN_MOTION_DOT": 4.27e-05, "MEAN_MOTION_DDOT": 0}, "tle": {"line1": "1 33853U 97051W   25343.06029553  .00004270  00000+0  24496-2 0  9990", "line2": "2 33853  85.9998 351.4246 0206959 247.2093 168.4772 13.99026400852942"}}, "geometry": {"type": "Point", "coordinates": [-9.253892697787856, -6.168798665440488]}}, {"type": "Feature", "properties": {"norad_id": 33860, "name": "IRIDIUM 33 DEB", "group": "iridium-33-debris", "lat": -36.601909627928855, "lon": -148.6886911991175, "alt_km": 681.0874143218234, "timestamp": "2025-12-09T14:52:26.547346+00:00", "meta": {"OBJECT_NAME": "IRIDIUM 33 DEB", "OBJECT_ID": "1997-051AD", "EPOCH": "2025-12-09T02:41:58.809408", "MEAN_MOTION": 14.67293225, "ECCENTRICITY": 0.00079354, "INCLINATION": 86.3836, "RA_OF_ASC_NODE": 28.8434, "ARG_OF_PERICENTER": 10.3707, "MEAN_ANOMALY": 48.4876, "EPHEMERIS_TYPE": 0, "CLASSIFICATION_TYPE": "U", "NORAD_CAT_ID": 33860, "ELEMENT_SET_NO": 999, "REV_AT_EPOCH": 88669, "BSTAR": 0.001421155, "MEAN_MOTION_DOT": 8.042e-05, "MEAN_MOTION_DDOT": 0}, "tle": {"line1": "1 33860U 97051AD  25343.11248622  .00008042  00000+0  14212-2 0  9990", "line2": "2 33860  86.3836  28.8434 0007935  10.3707  48.4876 14.67293225886692"}}, "geometry": {"type": "Point", "coordinates": [-148.6886911991175, -36.601909627928855]}}, {"type": "Feature", "properties": {"norad_id": 33862, "name": "IRIDIUM 33 DEB", "group": "iridium-33-debris", "lat": -48.64533110135388, "lon": -137.00258872369565, "alt_km": 702.3957318742705, "timestamp": "2025-12-09T14:52:26.547358+00:00", "meta": {"OBJECT_NAME": "IRIDIUM 33 DEB", "OBJECT_ID": "1997-051AF", "EPOCH": "2025-12-09T04:16:30.984096", "MEAN_MOTION": 14.69381362, "ECCENTRICITY": 0.00537078, "INCLINATION": 86.4088, "RA_OF_ASC_NODE": 39.1006, "ARG_OF_PERICENTER": 81.053, "MEAN_ANOMALY": 332.7915, "EPHEMERIS_TYPE": 0, "CLASSIFICATION_TYPE": "U", "NORAD_CAT_ID": 33862, "ELEMENT_SET_NO": 999, "REV_AT_EPOCH": 88771, "BSTAR": 0.00160862, "MEAN_MOTION_DOT": 9.751e-05, "MEAN_MOTION_DDOT": 0}, "tle": {"line1": "1 33862U 97051AF  25343.17813639  .00009751  00000+0  16086-2 0  9993", "line2": "2 33862  86.4088  39.1006 0053707  81.0530 332.7915 14.69381362887710"}}, "geometry": {"type": "Point", "coordinates": [-137.00258872369565, -48.64533110135388]}}, {"type": "Feature", "properties": {"norad_id": 33866, "name": "IRIDIUM 33 DEB", "group": "iridium-33-debris", "lat": 67.38069363302189, "lon": 103.2898127082327, "alt_km": 819.579081334773, "timestamp": "2025-12-09T14:52:26.547369+00:00", "meta": {"OBJECT_NAME": "IRIDIUM 33 DEB", "OBJECT_ID": "1997-051AK", "EPOCH": "2025-12-09T08:04:16.569696", "MEAN_MOTION": 14.25257308, "ECCENTRICITY": 0.01141965, "INCLINATION": 86.3001, "RA_OF_ASC_NODE": 94.4755, "ARG_OF_PERICENTER": 172.2365, "MEAN_ANOMALY": 243.3037, "EPHEMERIS_TYPE": 0, "CLASSIFICATION_TYPE": "U", "NORAD_CAT_ID": 33866, "ELEMENT_SET_NO": 999, "REV_AT_EPOCH": 86762, "BSTAR": 0.0011951038, "MEAN_MOTION_DOT": 3.027e-05, "MEAN_MOTION_DDOT": 0}, "tle": {"line1": "1 33866U 97051AK  25343.33630289  .00003027  00000+0  11951-2 0  9999", "line2": "2 33866  86.3001  94.4755 0114196 172.2365 243.3037 14.25257308867626"}}, "geometry": {"type": "Point", "coordinates": [103.2898127082327, 67.38069363302189]}}]}